start=new Date('2022-09-24T00:00:00.000Z').valueOf();
sats=[{"ARG_OF_PERICENTER":"71.7538","MEAN_ANOMALY":"288.3607","DECAY_DATE":null,"MEAN_ELEMENT_THEORY":"SGP4","TLE_LINE2":"2 48112  53.0563  85.9344 0001439  71.7538 288.3607 15.06393714 82004","MEAN_MOTION":"15.06393714","MEAN_MOTION_DDOT":"0.0000000000000","TLE_LINE1":"1 48112U 21027W   22266.84042989  .00000650  00000-0  62519-4 0  9998","ECCENTRICITY":"0.00014390","OBJECT_TYPE":"PAYLOAD","REV_AT_EPOCH":"8200","SITE":"AFETR","GP_ID":"213333232","SEMIMAJOR_AXIS":"6925.368","RCS_SIZE":"LARGE","INCLINATION":"53.0563","TIME_SYSTEM":"UTC","OBJECT_ID":"2021-027W","RA_OF_ASC_NODE":"85.9344","OBJECT_NAME":"STARLINK-2449","PERIAPSIS":"546.236","REF_FRAME":"TEME","NORAD_CAT_ID":"48112","ELEMENT_SET_NO":"999","MEAN_MOTION_DOT":"0.00000650","LAUNCH_DATE":"2021-04-07","CLASSIFICATION_TYPE":"U","PERIOD":"95.593","CENTER_NAME":"EARTH","FILE":"3581681","EPOCH":"2022-09-23T20:10:13.142496","EPHEMERIS_TYPE":"0","APOAPSIS":"548.229","COUNTRY_CODE":"US","BSTAR":"0.00006251900000"},{"ARG_OF_PERICENTER":"87.1029","MEAN_ANOMALY":"273.0126","DECAY_DATE":null,"TLE_LINE2":"2 48113  53.0556  81.3613 0001452  87.1029 273.0126 15.06397535 82043","MEAN_ELEMENT_THEORY":"SGP4","MEAN_MOTION":"15.06397535","MEAN_MOTION_DDOT":"0.0000000000000","TLE_LINE1":"1 48113U 21027X   22266.71001732  .00000551  00000-0  55895-4 0  9995","OBJECT_TYPE":"PAYLOAD","ECCENTRICITY":"0.00014520","REV_AT_EPOCH":"8204","GP_ID":"213333484","SITE":"AFETR","SEMIMAJOR_AXIS":"6925.356","RCS_SIZE":"LARGE","INCLINATION":"53.0556","TIME_SYSTEM":"UTC","OBJECT_ID":"2021-027X","RA_OF_ASC_NODE":"81.3613","OBJECT_NAME":"STARLINK-2450","PERIAPSIS":"546.216","REF_FRAME":"TEME","NORAD_CAT_ID":"48113","ELEMENT_SET_NO":"999","MEAN_MOTION_DOT":"0.00000551","LAUNCH_DATE":"2021-04-07","PERIOD":"95.592","CLASSIFICATION_TYPE":"U","CENTER_NAME":"EARTH","FILE":"3581681","EPOCH":"2022-09-23T17:02:25.496448","EPHEMERIS_TYPE":"0","APOAPSIS":"548.227","COUNTRY_CODE":"US","BSTAR":"0.00005589500000"},{"EPOCH":"2022-09-23T17:41:31.650432","FILE":"3581681","CENTER_NAME":"EARTH","BSTAR":"0.00003113600000","COUNTRY_CODE":"US","APOAPSIS":"548.110","EPHEMERIS_TYPE":"0","MEAN_MOTION_DOT":"0.00000182","ELEMENT_SET_NO":"999","NORAD_CAT_ID":"48114","PERIOD":"95.592","CLASSIFICATION_TYPE":"U","LAUNCH_DATE":"2021-04-07","OBJECT_ID":"2021-027Y","TIME_SYSTEM":"UTC","INCLINATION":"53.0552","RCS_SIZE":"LARGE","SITE":"AFETR","GP_ID":"213333734","SEMIMAJOR_AXIS":"6925.340","REF_FRAME":"TEME","PERIAPSIS":"546.301","OBJECT_NAME":"STARLINK-2451","RA_OF_ASC_NODE":"76.2323","MEAN_MOTION":"15.06402681","TLE_LINE2":"2 48114  53.0552  76.2323 0001306  97.4095 262.7042 15.06402681 82137","MEAN_ELEMENT_THEORY":"SGP4","DECAY_DATE":null,"MEAN_ANOMALY":"262.7042","ARG_OF_PERICENTER":"97.4095","REV_AT_EPOCH":"8213","TLE_LINE1":"1 48114U 21027Y   22266.73717188  .00000182  00000-0  31136-4 0  9999","OBJECT_TYPE":"PAYLOAD","ECCENTRICITY":"0.00013060","MEAN_MOTION_DDOT":"0.0000000000000"},{"COUNTRY_CODE":"US","BSTAR":"0.00023297000000","EPHEMERIS_TYPE":"0","APOAPSIS":"548.182","EPOCH":"2022-09-23T19:57:32.825088","CENTER_NAME":"EARTH","FILE":"3581681","LAUNCH_DATE":"2021-04-07","PERIOD":"95.592","CLASSIFICATION_TYPE":"U","MEAN_MOTION_DOT":"0.00003190","NORAD_CAT_ID":"48115","ELEMENT_SET_NO":"999","REF_FRAME":"TEME","RA_OF_ASC_NODE":"70.8145","OBJECT_NAME":"STARLINK-2452","PERIAPSIS":"546.256","RCS_SIZE":"LARGE","INCLINATION":"53.0553","TIME_SYSTEM":"UTC","OBJECT_ID":"2021-027Z","GP_ID":"213332982","SEMIMAJOR_AXIS":"6925.354","SITE":"AFETR","REV_AT_EPOCH":"8221","MEAN_MOTION_DDOT":"0.0000000000000","TLE_LINE1":"1 48115U 21027Z   22266.83162992  .00003190  00000-0  23297-3 0  9998","OBJECT_TYPE":"PAYLOAD","ECCENTRICITY":"0.00013900","MEAN_ANOMALY":"282.7644","DECAY_DATE":null,"TLE_LINE2":"2 48115  53.0553  70.8145 0001390  77.3500 282.7644 15.06398252 82219","MEAN_ELEMENT_THEORY":"SGP4","MEAN_MOTION":"15.06398252","ARG_OF_PERICENTER":"77.3500"},{"LAUNCH_DATE":"2021-04-07","PERIOD":"95.592","CLASSIFICATION_TYPE":"U","MEAN_MOTION_DOT":"0.00000855","NORAD_CAT_ID":"48116","ELEMENT_SET_NO":"999","COUNTRY_CODE":"US","BSTAR":"0.00007630600000","EPHEMERIS_TYPE":"0","APOAPSIS":"548.079","EPOCH":"2022-09-23T18:32:38.851296","CENTER_NAME":"EARTH","FILE":"3581681","REV_AT_EPOCH":"8206","MEAN_MOTION_DDOT":"0.0000000000000","TLE_LINE1":"1 48116U 21027AA  22266.77267189  .00000855  00000-0  76306-4 0  9991","ECCENTRICITY":"0.00012610","OBJECT_TYPE":"PAYLOAD","MEAN_ANOMALY":"278.7131","DECAY_DATE":null,"MEAN_ELEMENT_THEORY":"SGP4","TLE_LINE2":"2 48116  53.0552  81.0640 0001261  81.4001 278.7131 15.06402439 82064","MEAN_MOTION":"15.06402439","ARG_OF_PERICENTER":"81.4001","REF_FRAME":"TEME","RA_OF_ASC_NODE":"81.0640","OBJECT_NAME":"STARLINK-2454","PERIAPSIS":"546.333","RCS_SIZE":"LARGE","INCLINATION":"53.0552","TIME_SYSTEM":"UTC","OBJECT_ID":"2021-027AA","SITE":"AFETR","GP_ID":"213332733","SEMIMAJOR_AXIS":"6925.341"},{"FILE":"3581681","CENTER_NAME":"EARTH","EPOCH":"2022-09-23T17:51:29.026080","APOAPSIS":"548.107","EPHEMERIS_TYPE":"0","BSTAR":"0.00008302800000","COUNTRY_CODE":"US","ELEMENT_SET_NO":"999","NORAD_CAT_ID":"48117","MEAN_MOTION_DOT":"0.00000955","CLASSIFICATION_TYPE":"U","PERIOD":"95.593","LAUNCH_DATE":"2021-04-07","SITE":"AFETR","GP_ID":"213333984","SEMIMAJOR_AXIS":"6925.372","OBJECT_ID":"2021-027AB","INCLINATION":"53.0555","TIME_SYSTEM":"UTC","RCS_SIZE":"LARGE","PERIAPSIS":"546.366","OBJECT_NAME":"STARLINK-2455","RA_OF_ASC_NODE":"61.2023","REF_FRAME":"TEME","ARG_OF_PERICENTER":"83.5647","MEAN_MOTION":"15.06392373","TLE_LINE2":"2 48117  53.0555  61.2023 0001257  83.5647 276.5485 15.06392373 82341","MEAN_ELEMENT_THEORY":"SGP4","DECAY_DATE":null,"MEAN_ANOMALY":"276.5485","ECCENTRICITY":"0.00012570","TLE_LINE1":"1 48117U 21027AB  22266.74408595  .00000955  00000-0  83028-4 0  9997","OBJECT_TYPE":"PAYLOAD","MEAN_MOTION_DDOT":"0.0000000000000","REV_AT_EPOCH":"8234"},{"REF_FRAME":"TEME","PERIAPSIS":"546.294","OBJECT_NAME":"STARLINK-2458","RA_OF_ASC_NODE":"60.8566","OBJECT_ID":"2021-027AC","INCLINATION":"53.0553","TIME_SYSTEM":"UTC","RCS_SIZE":"LARGE","SEMIMAJOR_AXIS":"6925.377","GP_ID":"213307921","SITE":"AFETR","REV_AT_EPOCH":"8195","OBJECT_TYPE":"PAYLOAD","TLE_LINE1":"1 48118U 21027AC  22266.82244347  .00000966  00000-0  83780-4 0  9997","ECCENTRICITY":"0.00013680","MEAN_MOTION_DDOT":"0.0000000000000","MEAN_MOTION":"15.06390835","TLE_LINE2":"2 48118  53.0553  60.8566 0001368  80.1071 280.0072 15.06390835 81953","MEAN_ELEMENT_THEORY":"SGP4","MEAN_ANOMALY":"280.0072","DECAY_DATE":null,"ARG_OF_PERICENTER":"80.1071","BSTAR":"0.00008378000000","COUNTRY_CODE":"US","APOAPSIS":"548.189","EPHEMERIS_TYPE":"0","EPOCH":"2022-09-23T19:44:19.115808","FILE":"3581497","CENTER_NAME":"EARTH","CLASSIFICATION_TYPE":"U","PERIOD":"95.593","LAUNCH_DATE":"2021-04-07","MEAN_MOTION_DOT":"0.00000966","ELEMENT_SET_NO":"999","NORAD_CAT_ID":"48118"},{"MEAN_MOTION_DDOT":"0.0000000000000","OBJECT_TYPE":"PAYLOAD","TLE_LINE1":"1 48119U 21027AD  22266.81781028  .00001390  00000-0  11220-3 0  9990","ECCENTRICITY":"0.00014010","REV_AT_EPOCH":"8195","ARG_OF_PERICENTER":"73.4568","MEAN_ANOMALY":"286.6575","DECAY_DATE":null,"MEAN_MOTION":"15.06390315","MEAN_ELEMENT_THEORY":"SGP4","TLE_LINE2":"2 48119  53.0572  60.8734 0001401  73.4568 286.6575 15.06390315 81959","RA_OF_ASC_NODE":"60.8734","PERIAPSIS":"546.273","OBJECT_NAME":"STARLINK-2459","REF_FRAME":"TEME","SEMIMAJOR_AXIS":"6925.378","GP_ID":"213308371","SITE":"AFETR","RCS_SIZE":"LARGE","OBJECT_ID":"2021-027AD","INCLINATION":"53.0572","TIME_SYSTEM":"UTC","PERIOD":"95.593","CLASSIFICATION_TYPE":"U","LAUNCH_DATE":"2021-04-07","NORAD_CAT_ID":"48119","ELEMENT_SET_NO":"999","MEAN_MOTION_DOT":"0.00001390","EPHEMERIS_TYPE":"0","APOAPSIS":"548.213","BSTAR":"0.00011220000000","COUNTRY_CODE":"US","CENTER_NAME":"EARTH","FILE":"3581502","EPOCH":"2022-09-23T19:37:38.808192"},{"DECAY_DATE":null,"MEAN_ANOMALY":"278.2058","MEAN_MOTION":"15.06404338","MEAN_ELEMENT_THEORY":"SGP4","TLE_LINE2":"2 48120  53.0555  81.1473 0001295  81.9078 278.2058 15.06404338 82077","ARG_OF_PERICENTER":"81.9078","REV_AT_EPOCH":"8207","MEAN_MOTION_DDOT":"0.0000000000000","TLE_LINE1":"1 48120U 21027AE  22266.75792604  .00001213  00000-0  10029-3 0  9997","ECCENTRICITY":"0.00012950","OBJECT_TYPE":"PAYLOAD","RCS_SIZE":"LARGE","OBJECT_ID":"2021-027AE","INCLINATION":"53.0555","TIME_SYSTEM":"UTC","SEMIMAJOR_AXIS":"6925.335","GP_ID":"213333233","SITE":"AFETR","REF_FRAME":"TEME","RA_OF_ASC_NODE":"81.1473","PERIAPSIS":"546.303","OBJECT_NAME":"STARLINK-2460","MEAN_MOTION_DOT":"0.00001213","NORAD_CAT_ID":"48120","ELEMENT_SET_NO":"999","CLASSIFICATION_TYPE":"U","PERIOD":"95.592","LAUNCH_DATE":"2021-04-07","EPOCH":"2022-09-23T18:11:24.809856","CENTER_NAME":"EARTH","FILE":"3581681","BSTAR":"0.00010029000000","COUNTRY_CODE":"US","EPHEMERIS_TYPE":"0","APOAPSIS":"548.097"},{"BSTAR":"0.00014581000000","COUNTRY_CODE":"US","EPHEMERIS_TYPE":"0","APOAPSIS":"548.162","EPOCH":"2022-09-23T17:30:17.274240","CENTER_NAME":"EARTH","FILE":"3581681","PERIOD":"95.592","CLASSIFICATION_TYPE":"U","LAUNCH_DATE":"2021-04-07","MEAN_MOTION_DOT":"0.00001891","NORAD_CAT_ID":"48121","ELEMENT_SET_NO":"999","REF_FRAME":"TEME","RA_OF_ASC_NODE":"71.2704","PERIAPSIS":"546.258","OBJECT_NAME":"STARLINK-2462","RCS_SIZE":"LARGE","OBJECT_ID":"2021-027AF","INCLINATION":"53.0556","TIME_SYSTEM":"UTC","GP_ID":"213333485","SITE":"AFETR","SEMIMAJOR_AXIS":"6925.345","REV_AT_EPOCH":"8219","MEAN_MOTION_DDOT":"0.0000000000000","OBJECT_TYPE":"PAYLOAD","TLE_LINE1":"1 48121U 21027AF  22266.72936660  .00001891  00000-0  14581-3 0  9996","ECCENTRICITY":"0.00013750","DECAY_DATE":null,"MEAN_ANOMALY":"265.2209","MEAN_MOTION":"15.06401247","MEAN_ELEMENT_THEORY":"SGP4","TLE_LINE2":"2 48121  53.0556  71.2704 0001375  94.8937 265.2209 15.06401247 82195","ARG_OF_PERICENTER":"94.8937"}];
